TEVEL2-5                
1 63214U 25052E   26068.96660006  .00021339  00000+0  71765-3 0  9991
2 63214  97.4013 325.3677 0004700  95.3936 264.7842 15.30817434 54919
STARLINK-35783          
1 66286U 25247X   26068.62206745  .00037214  00000+0  12624-2 0  9995
2 66286  53.1586 191.7313 0000889  80.2019 279.9082 15.30198250 21024
