[{"OBJECT_NAME":"TEVEL2-5","OBJECT_ID":"2025-052E","EPOCH":"2026-03-09T23:11:54.246048","MEAN_MOTION":15.30817434,"ECCENTRICITY":0.00047002,"INCLINATION":97.4013,"RA_OF_ASC_NODE":325.3677,"ARG_OF_PERICENTER":95.3936,"MEAN_ANOMALY":264.7842,"EPHEMERIS_TYPE":0,"CLASSIFICATION_TYPE":"U","NORAD_CAT_ID":63214,"ELEMENT_SET_NO":999,"REV_AT_EPOCH":5491,"BSTAR":0.00071764727,"MEAN_MOTION_DOT":0.00021339,"MEAN_MOTION_DDOT":0},{"OBJECT_NAME":"STARLINK-35783","OBJECT_ID":"2025-247X","EPOCH":"2026-03-09T14:55:46.627680","MEAN_MOTION":15.3019825,"ECCENTRICITY":8.89e-5,"INCLINATION":53.1586,"RA_OF_ASC_NODE":191.7313,"ARG_OF_PERICENTER":80.2019,"MEAN_ANOMALY":279.9082,"EPHEMERIS_TYPE":0,"CLASSIFICATION_TYPE":"U","NORAD_CAT_ID":66286,"ELEMENT_SET_NO":999,"REV_AT_EPOCH":2102,"BSTAR":0.0012624,"MEAN_MOTION_DOT":0.00037214,"MEAN_MOTION_DDOT":0}]
